INTELSAT 902 (IS-902)   
1 26900U 01039A   26116.76925703 -.00000290  00000+0  00000+0 0  9995
2 26900   5.9889  72.3959 0004516 319.9031  49.3051  1.00270813 90187
SL-12 R/B(2)            
1 26939U 01045D   26116.72157343 -.00000043  00000+0  00000+0 0  9993
2 26939  13.8497  12.4773 0026566  28.0804 142.1948  1.00210434 90210
ECHOSTAR 7              
1 27378U 02006A   26116.96647605  .00000080  00000+0  00000+0 0  9990
2 27378   3.8845  78.0108 0003396 298.9904 248.8722  0.99832410 50029
INTELSAT 904 (IS-904)   
1 27380U 02007A   26116.70164001 -.00000233  00000+0  00000+0 0  9991
2 27380   6.7944  69.7905 0007747 338.9290  27.0697  1.00269764 51256
DIRECTV 5 (TEMPO 1)     
1 27426U 02023A   26116.90004081 -.00000064  00000+0  00000+0 0  9995
2 27426   4.7493  75.9322 0003483 322.6862  30.1841  1.00271968 87607
INTELSAT 905 (IS-905)   
1 27438U 02027A   26116.54100325  .00000086  00000+0  00000+0 0  9993
2 27438   6.6267  70.4097 0003443 338.8087 222.8894  1.00273539 50843
GALAXY 3C (G-3C)        
1 27445U 02030A   26116.90298749 -.00000160  00000+0  00000+0 0  9997
2 27445   3.5995  78.6605 0001602  24.7368 341.7100  1.00271778 45981
INTELSAT 906 (IS-906)   
1 27513U 02041A   26116.96691704  .00000006  00000+0  00000+0 0  9997
2 27513   5.6740  73.5356 0004033 335.9906 217.6830  1.00270667 86512
EUTELSAT 33B            
1 27554U 02051A   26116.93452650  .00000128  00000+0  00000+0 0  9990
2 27554   8.8601  60.4391 0015089 332.2501 185.1407  1.00224719 48284
NIMIQ 2                 
1 27632U 02062A   26116.90012748 -.00000076  00000+0  00000+0 0  9999
2 27632   9.3310  57.4351 0006387 334.5732  37.7739  1.00273037 43673
USA 167                 
1 27691U 03008A   26116.89761413 -.00000001  00000+0  00000+0 0  9991
2 27691  10.8628  43.8641 0005081 306.8923  65.0904  1.00273746  6261
TITAN 4 CENTAUR R/B     
1 27712U 03012B   26115.79406520 -.00000092  00000+0  00000+0 0  9993
2 27712  11.1018  23.5918 0023792 278.6621  81.0083  1.00595441 25260
INSAT-3A                
1 27714U 03013A   26116.93141426  .00000126  00000+0  00000+0 0  9991
2 27714   8.7100  61.5569 0011301 322.3400 214.9285  0.99799309 84212
ASIASAT 4               
1 27718U 03014A   26116.77058782 -.00000230  00000+0  00000+0 0  9997
2 27718   4.5741  76.3738 0002794 328.4481 234.9125  1.00270760 44786
SL-12 R/B(2)            
1 27780U 03015F   26116.59836453 -.00000353  00000+0  00000+0 0  9992
2 27780  12.6933  20.7698 0010736  36.4219 144.2341  1.00262124 83989
GSAT-2                  
1 27807U 03018A   26116.92775404 -.00000004  00000+0  00000+0 0  9993
2 27807  11.0785  42.1303 0012124 344.3798 175.4887  0.99854298 83925
HELLAS-SAT 2            
1 27811U 03020A   26116.63464639 -.00000091  00000+0  00000+0 0  9990
2 27811   7.2295  68.4892 0004446 291.9269  72.6943  1.00271918 42331
