[{"OBJECT_NAME":"INTELSAT 902 (IS-902)","OBJECT_ID":"2001-039A","EPOCH":"2026-04-26T18:27:43.807392","MEAN_MOTION":1.00270813,"ECCENTRICITY":0.00045163,"INCLINATION":5.9889,"RA_OF_ASC_NODE":72.3959,"ARG_OF_PERICENTER":319.9031,"MEAN_ANOMALY":49.3051,"EPHEMERIS_TYPE":0,"CLASSIFICATION_TYPE":"U","NORAD_CAT_ID":26900,"ELEMENT_SET_NO":999,"REV_AT_EPOCH":9018,"BSTAR":0,"MEAN_MOTION_DOT":-2.9e-6,"MEAN_MOTION_DDOT":0},{"OBJECT_NAME":"SL-12 R/B(2)","OBJECT_ID":"2001-045D","EPOCH":"2026-04-26T17:19:03.944352","MEAN_MOTION":1.00210434,"ECCENTRICITY":0.0026566,"INCLINATION":13.8497,"RA_OF_ASC_NODE":12.4773,"ARG_OF_PERICENTER":28.0804,"MEAN_ANOMALY":142.1948,"EPHEMERIS_TYPE":0,"CLASSIFICATION_TYPE":"U","NORAD_CAT_ID":26939,"ELEMENT_SET_NO":999,"REV_AT_EPOCH":9021,"BSTAR":0,"MEAN_MOTION_DOT":-4.3e-7,"MEAN_MOTION_DDOT":0},{"OBJECT_NAME":"ECHOSTAR 7","OBJECT_ID":"2002-006A","EPOCH":"2026-04-26T23:11:43.530720","MEAN_MOTION":0.9983241,"ECCENTRICITY":0.0003396,"INCLINATION":3.8845,"RA_OF_ASC_NODE":78.0108,"ARG_OF_PERICENTER":298.9904,"MEAN_ANOMALY":248.8722,"EPHEMERIS_TYPE":0,"CLASSIFICATION_TYPE":"U","NORAD_CAT_ID":27378,"ELEMENT_SET_NO":999,"REV_AT_EPOCH":5002,"BSTAR":0,"MEAN_MOTION_DOT":8.0e-7,"MEAN_MOTION_DDOT":0},{"OBJECT_NAME":"INTELSAT 904 (IS-904)","OBJECT_ID":"2002-007A","EPOCH":"2026-04-26T16:50:21.696864","MEAN_MOTION":1.00269764,"ECCENTRICITY":0.00077474,"INCLINATION":6.7944,"RA_OF_ASC_NODE":69.7905,"ARG_OF_PERICENTER":338.929,"MEAN_ANOMALY":27.0697,"EPHEMERIS_TYPE":0,"CLASSIFICATION_TYPE":"U","NORAD_CAT_ID":27380,"ELEMENT_SET_NO":999,"REV_AT_EPOCH":5125,"BSTAR":0,"MEAN_MOTION_DOT":-2.33e-6,"MEAN_MOTION_DDOT":0},{"OBJECT_NAME":"DIRECTV 5 (TEMPO 1)","OBJECT_ID":"2002-023A","EPOCH":"2026-04-26T21:36:03.525984","MEAN_MOTION":1.00271968,"ECCENTRICITY":0.00034839,"INCLINATION":4.7493,"RA_OF_ASC_NODE":75.9322,"ARG_OF_PERICENTER":322.6862,"MEAN_ANOMALY":30.1841,"EPHEMERIS_TYPE":0,"CLASSIFICATION_TYPE":"U","NORAD_CAT_ID":27426,"ELEMENT_SET_NO":999,"REV_AT_EPOCH":8760,"BSTAR":0,"MEAN_MOTION_DOT":-6.4e-7,"MEAN_MOTION_DDOT":0},{"OBJECT_NAME":"INTELSAT 905 (IS-905)","OBJECT_ID":"2002-027A","EPOCH":"2026-04-26T12:59:02.680800","MEAN_MOTION":1.00273539,"ECCENTRICITY":0.0003443,"INCLINATION":6.6267,"RA_OF_ASC_NODE":70.4097,"ARG_OF_PERICENTER":338.8087,"MEAN_ANOMALY":222.8894,"EPHEMERIS_TYPE":0,"CLASSIFICATION_TYPE":"U","NORAD_CAT_ID":27438,"ELEMENT_SET_NO":999,"REV_AT_EPOCH":5084,"BSTAR":0,"MEAN_MOTION_DOT":8.6e-7,"MEAN_MOTION_DDOT":0},{"OBJECT_NAME":"GALAXY 3C (G-3C)","OBJECT_ID":"2002-030A","EPOCH":"2026-04-26T21:40:18.119136","MEAN_MOTION":1.00271778,"ECCENTRICITY":0.00016025,"INCLINATION":3.5995,"RA_OF_ASC_NODE":78.6605,"ARG_OF_PERICENTER":24.7368,"MEAN_ANOMALY":341.71,"EPHEMERIS_TYPE":0,"CLASSIFICATION_TYPE":"U","NORAD_CAT_ID":27445,"ELEMENT_SET_NO":999,"REV_AT_EPOCH":4598,"BSTAR":0,"MEAN_MOTION_DOT":-1.6e-6,"MEAN_MOTION_DDOT":0},{"OBJECT_NAME":"INTELSAT 906 (IS-906)","OBJECT_ID":"2002-041A","EPOCH":"2026-04-26T23:12:21.632256","MEAN_MOTION":1.00270667,"ECCENTRICITY":0.00040332,"INCLINATION":5.674,"RA_OF_ASC_NODE":73.5356,"ARG_OF_PERICENTER":335.9906,"MEAN_ANOMALY":217.683,"EPHEMERIS_TYPE":0,"CLASSIFICATION_TYPE":"U","NORAD_CAT_ID":27513,"ELEMENT_SET_NO":999,"REV_AT_EPOCH":8651,"BSTAR":0,"MEAN_MOTION_DOT":6.0e-8,"MEAN_MOTION_DDOT":0},{"OBJECT_NAME":"EUTELSAT 33B","OBJECT_ID":"2002-051A","EPOCH":"2026-04-26T22:25:43.089600","MEAN_MOTION":1.00224719,"ECCENTRICITY":0.00150891,"INCLINATION":8.8601,"RA_OF_ASC_NODE":60.4391,"ARG_OF_PERICENTER":332.2501,"MEAN_ANOMALY":185.1407,"EPHEMERIS_TYPE":0,"CLASSIFICATION_TYPE":"U","NORAD_CAT_ID":27554,"ELEMENT_SET_NO":999,"REV_AT_EPOCH":4828,"BSTAR":0,"MEAN_MOTION_DOT":1.28e-6,"MEAN_MOTION_DDOT":0},{"OBJECT_NAME":"NIMIQ 2","OBJECT_ID":"2002-062A","EPOCH":"2026-04-26T21:36:11.014272","MEAN_MOTION":1.00273037,"ECCENTRICITY":0.00063875,"INCLINATION":9.331,"RA_OF_ASC_NODE":57.4351,"ARG_OF_PERICENTER":334.5732,"MEAN_ANOMALY":37.7739,"EPHEMERIS_TYPE":0,"CLASSIFICATION_TYPE":"U","NORAD_CAT_ID":27632,"ELEMENT_SET_NO":999,"REV_AT_EPOCH":4367,"BSTAR":0,"MEAN_MOTION_DOT":-7.6e-7,"MEAN_MOTION_DDOT":0},{"OBJECT_NAME":"USA 167","OBJECT_ID":"2003-008A","EPOCH":"2026-04-26T21:32:33.860832","MEAN_MOTION":1.00273746,"ECCENTRICITY":0.00050813,"INCLINATION":10.8628,"RA_OF_ASC_NODE":43.8641,"ARG_OF_PERICENTER":306.8923,"MEAN_ANOMALY":65.0904,"EPHEMERIS_TYPE":0,"CLASSIFICATION_TYPE":"U","NORAD_CAT_ID":27691,"ELEMENT_SET_NO":999,"REV_AT_EPOCH":626,"BSTAR":0,"MEAN_MOTION_DOT":-1.0e-8,"MEAN_MOTION_DDOT":0},{"OBJECT_NAME":"TITAN 4 CENTAUR R/B","OBJECT_ID":"2003-012B","EPOCH":"2026-04-25T19:03:27.233280","MEAN_MOTION":1.00595441,"ECCENTRICITY":0.00237923,"INCLINATION":11.1018,"RA_OF_ASC_NODE":23.5918,"ARG_OF_PERICENTER":278.6621,"MEAN_ANOMALY":81.0083,"EPHEMERIS_TYPE":0,"CLASSIFICATION_TYPE":"U","NORAD_CAT_ID":27712,"ELEMENT_SET_NO":999,"REV_AT_EPOCH":2526,"BSTAR":0,"MEAN_MOTION_DOT":-9.2e-7,"MEAN_MOTION_DDOT":0},{"OBJECT_NAME":"INSAT-3A","OBJECT_ID":"2003-013A","EPOCH":"2026-04-26T22:21:14.192064","MEAN_MOTION":0.99799309,"ECCENTRICITY":0.00113015,"INCLINATION":8.71,"RA_OF_ASC_NODE":61.5569,"ARG_OF_PERICENTER":322.34,"MEAN_ANOMALY":214.9285,"EPHEMERIS_TYPE":0,"CLASSIFICATION_TYPE":"U","NORAD_CAT_ID":27714,"ELEMENT_SET_NO":999,"REV_AT_EPOCH":8421,"BSTAR":0,"MEAN_MOTION_DOT":1.26e-6,"MEAN_MOTION_DDOT":0},{"OBJECT_NAME":"ASIASAT 4","OBJECT_ID":"2003-014A","EPOCH":"2026-04-26T18:29:38.787648","MEAN_MOTION":1.0027076,"ECCENTRICITY":0.00027943,"INCLINATION":4.5741,"RA_OF_ASC_NODE":76.3738,"ARG_OF_PERICENTER":328.4481,"MEAN_ANOMALY":234.9125,"EPHEMERIS_TYPE":0,"CLASSIFICATION_TYPE":"U","NORAD_CAT_ID":27718,"ELEMENT_SET_NO":999,"REV_AT_EPOCH":4478,"BSTAR":0,"MEAN_MOTION_DOT":-2.3e-6,"MEAN_MOTION_DDOT":0},{"OBJECT_NAME":"SL-12 R/B(2)","OBJECT_ID":"2003-015F","EPOCH":"2026-04-26T14:21:38.695392","MEAN_MOTION":1.00262124,"ECCENTRICITY":0.0010736,"INCLINATION":12.6933,"RA_OF_ASC_NODE":20.7698,"ARG_OF_PERICENTER":36.4219,"MEAN_ANOMALY":144.2341,"EPHEMERIS_TYPE":0,"CLASSIFICATION_TYPE":"U","NORAD_CAT_ID":27780,"ELEMENT_SET_NO":999,"REV_AT_EPOCH":8398,"BSTAR":0,"MEAN_MOTION_DOT":-3.53e-6,"MEAN_MOTION_DDOT":0},{"OBJECT_NAME":"GSAT-2","OBJECT_ID":"2003-018A","EPOCH":"2026-04-26T22:15:57.949056","MEAN_MOTION":0.99854298,"ECCENTRICITY":0.00121244,"INCLINATION":11.0785,"RA_OF_ASC_NODE":42.1303,"ARG_OF_PERICENTER":344.3798,"MEAN_ANOMALY":175.4887,"EPHEMERIS_TYPE":0,"CLASSIFICATION_TYPE":"U","NORAD_CAT_ID":27807,"ELEMENT_SET_NO":999,"REV_AT_EPOCH":8392,"BSTAR":0,"MEAN_MOTION_DOT":-4.0e-8,"MEAN_MOTION_DDOT":0},{"OBJECT_NAME":"HELLAS-SAT 2","OBJECT_ID":"2003-020A","EPOCH":"2026-04-26T15:13:53.448096","MEAN_MOTION":1.00271918,"ECCENTRICITY":0.00044465,"INCLINATION":7.2295,"RA_OF_ASC_NODE":68.4892,"ARG_OF_PERICENTER":291.9269,"MEAN_ANOMALY":72.6943,"EPHEMERIS_TYPE":0,"CLASSIFICATION_TYPE":"U","NORAD_CAT_ID":27811,"ELEMENT_SET_NO":999,"REV_AT_EPOCH":4233,"BSTAR":0,"MEAN_MOTION_DOT":-9.1e-7,"MEAN_MOTION_DDOT":0}]
